[{"OBJECT_NAME":"STARLINK-5226","OBJECT_ID":"2022-136F","EPOCH":"2026-03-09T23:29:57.890400","MEAN_MOTION":15.08832158,"ECCENTRICITY":0.00013548,"INCLINATION":53.2192,"RA_OF_ASC_NODE":342.4065,"ARG_OF_PERICENTER":96.2146,"MEAN_ANOMALY":263.9001,"EPHEMERIS_TYPE":0,"CLASSIFICATION_TYPE":"U","NORAD_CAT_ID":54056,"ELEMENT_SET_NO":999,"REV_AT_EPOCH":18689,"BSTAR":-3.9538762e-5,"MEAN_MOTION_DOT":-9.17e-6,"MEAN_MOTION_DDOT":0},{"OBJECT_NAME":"COSMOS 2251 DEB","OBJECT_ID":"1993-036AKM","EPOCH":"2026-03-09T06:40:10.063200","MEAN_MOTION":15.08111536,"ECCENTRICITY":0.00695902,"INCLINATION":73.9816,"RA_OF_ASC_NODE":154.5784,"ARG_OF_PERICENTER":280.7947,"MEAN_ANOMALY":78.5416,"EPHEMERIS_TYPE":0,"CLASSIFICATION_TYPE":"U","NORAD_CAT_ID":35443,"ELEMENT_SET_NO":999,"REV_AT_EPOCH":88177,"BSTAR":0.0043181541,"MEAN_MOTION_DOT":0.00071124,"MEAN_MOTION_DDOT":0}]
